CUBEBUG-2 (LO-74)
1 39440U 13066AA  26193.11423713  .00001899  00000-0  17874-3 0  9996
2 39440  97.8909 142.2026 0055997 305.8130  53.7893 14.93954632680719
FUNCUBE-1 (AO-73)
1 39444U 13066AE  26192.91261323  .00003917  00000-0  24262-3 0  9996
2 39444  97.8287 164.8814 0037972 118.2418 242.2652 15.09793381683390
UWE-3
1 39446U 13066AG  26192.81148793  .00001794  00000-0  15713-3 0  9994
2 39446  97.8698 149.0559 0047517 236.3304 123.3381 14.97185641681263
UNISAT-6
1 40012U 14033C   26193.21068043  .00001207  00000-0  13419-3 0  9994
2 40012  97.7904 345.4875 0044426 347.7479  12.2654 14.88359055649885
DUCHIFAT-1
1 40021U 14033M   26192.66620544  .00095138  00000-0  77604-3 0  9994
2 40021  98.0458 255.3712 0001920 269.1618  90.9422 15.70315468659582
LILACSAT-2
1 40908U 15049K   26193.16193541  .00012471  00000-0  20654-3 0  9996
2 40908  97.4630 230.9622 0008208 150.3733 209.7985 15.52284977599627
CAS-2T & KS-1Q
1 41847U 16066G   26193.17326632  .00000623  00000-0  95449-4 0  9990
2 41847  98.3814 268.6236 0342398  53.9111 309.3277 14.44766328508404
FOX-1B (AO-91)
1 43017U 17073E   26193.07687024  .00003550  00000-0  15680-3 0  9994
2 43017  97.4678  59.7847 0148086 242.3404 116.2732 15.13035809469156
FUNCUBE-3 (EO-79)/QB50P1
1 40025U 14033R   26192.99365557  .00005121  00000-0  25074-3 0  9991
2 40025  98.0966 205.8851 0010164 134.1703 226.0367 15.18635038656790
FOX-1A (AO-85)
1 40967U 15058D   26193.03515899  .00001727  00000-0  16264-3 0  9995
2 40967  64.7730 201.7566 0132122  46.9965 314.2129 14.91076787117272
DIWATA-2B (PO-101)
1 43678U 18084H   26193.17688950  .00001293  00000-0  10753-3 0  9998
2 43678  98.1220  30.4794 0012979  93.5794 266.6913 15.00556215419966
ESHAIL-2
1 43700U 18090A   26193.14031786  .00000000  00000-0  00000+0 0  9992
2 43700   0.0281  44.5798 0002171 115.6696 206.0995  1.00269504 27927
ITASAT-1
1 43786U 18099AE  26193.11652161  .00003649  00000-0  17557-3 0  9999
2 43786  97.4020 244.1331 0010804 262.7378  97.2629 15.19358576416699
FOX-1CLIFF (AO-95)
1 43770U 18099N   26193.11057704  .00007092  00000-0  26835-3 0  9999
2 43770  97.4378 253.2714 0007053 252.7613 107.2854 15.27232320417024
JY1SAT (JO-97)
1 43803U 18099AX  26192.68722269  .00009972  00000-0  30109-3 0  9990
2 43803  97.4124 255.6172 0006518 168.9842 191.1545 15.34443331417383
UWE-4
1 43880U 18111E   26190.27481266  .00027640  00000-0  53768-3 0  9990
2 43880  97.5841 119.7053 0005271 218.3666 141.7210 15.47549208414192
CAS-6 (TO-108)
1 44881U 19093C   26193.15200447  .00000603  00000-0  74019-4 0  9995
2 44881  97.7526 264.7741 0013831  11.3406 348.8119 14.86557616355124
DOSAAF-85 (RS-44)
1 44909U 19096E   26192.86665934 -.00000004  00000-0 -67664-4 0  9997
2 44909  82.5240 323.3055 0218563  86.7368 275.8710 12.79748961305500
SALSAT (TUBSAT 22)
1 46495U 20068K   26192.54062004  .00004447  00000-0  15528-3 0  9998
2 46495  97.8855 197.0941 0008823 206.5203 153.5586 15.30139435319080
CAMSAT XW-3 (CAS-9)
1 50466U 21131B   26193.18415211  .00000176  00000-0  68108-4 0  9994
2 50466  98.4985 285.4389 0004742  38.6622 321.4906 14.41380016238713
ROBUSTA 1F (MTCUBE-2)
1 53109U 22080E   26192.30794326 -.00000003  00000-0  00000-0 0  9998
2 53109  70.1420 289.8580 0009046 284.3679  75.5976  6.42583311 93613
UMKA-1 (RS40S)
1 57172U 23091G   26193.09406985  .00003680  00000-0  16830-3 0  9997
2 57172  97.5041 251.6977 0013332  39.7413 320.4797 15.21100202167792
CUBESX-HSE-3 (RS42S)
1 57178U 23091N   26193.13229157  .00008273  00000-0  27134-3 0  9994
2 57178  97.5086 259.0430 0009990  13.0447 347.1051 15.31836533168244
MONITOR-3 (RS58S)
1 57180U 23091Q   26193.21282068  .00005915  00000-0  21678-3 0  9993
2 57180  97.5077 256.8485 0011323  20.1738 339.9947 15.28335579168116
MONITOR-4 (RS57S)
1 57182U 23091S   26193.19048529  .00006118  00000-0  22351-3 0  9999
2 57182  97.5071 256.7986 0011327  20.6117 339.5577 15.28421623168118
MONITOR-2 (RS39S)
1 57184U 23091U   26193.14702685  .00002742  00000-0  13362-3 0  9997
2 57184  97.5062 251.2698 0011681  33.9590 326.2390 15.19137320167747
SVYATOBOR-1 (RS60S)
1 57187U 23091X   26193.16015979  .00005285  00000-0  20191-3 0  9998
2 57187  97.5083 257.1200 0009052  15.2272 344.9237 15.27031809168120
VIZARD-METEO (RS38S)
1 57189U 23091Z   26193.15690588  .00010729  00000-0  30032-3 0  9998
2 57189  97.5086 263.1542 0005926 352.2501   7.8650 15.36812410168529
UTMN-2 (RS27S)
1 57203U 23091AP  26193.20170781  .00007699  00000-0  24654-3 0  9994
2 57203  97.5082 260.7776 0007033   1.4002 358.7258 15.32655753168370
POLYTECH UNIVERSE-3 (RS46S)
1 57191U 23091AB  26193.17083600  .00003100  00000-0  14949-3 0  9998
2 57191  97.5038 250.7977 0016310  47.6415 312.6197 15.19349249167743
